OCEANSAT-2              
1 35931U 09051A   26200.86870748  .00000043  00000+0  55281-4 0  9995
2 35931  98.2324 184.4571 0017635 140.1068 220.1398 13.99656128883906
WORLDVIEW-2 (WV-2)      
1 35946U 09055A   26200.86914562  .00000028  00000+0  23650-4 0  9996
2 35946  98.4752 273.8738 0005462 118.7338 241.4398 14.37907681880340
SMOS                    
1 36036U 09059A   26200.50523985  .00000104  00000+0  47191-4 0  9998
2 36036  98.4431  27.3666 0001190  97.6519 262.4804 14.39737386878108
YAOGAN-7                
1 36110U 09069A   26200.44877280  .00000171  00000+0  31018-4 0  9990
2 36110  98.0026  86.1103 0023288 296.9883  62.8950 14.78037618894393
TANDEM-X                
1 36605U 10030A   26200.46718951  .00000093  00000+0  76149-5 0  9998
2 36605  97.4457 207.7160 0001887  96.1050 264.0399 15.19149242891544
CARTOSAT-2B             
1 36795U 10035A   26200.82168801 -.00000113  00000+0 -82071-5 0  9992
2 36795  97.9930 251.1593 0012741  86.7954 273.4714 14.78652041864676
YAOGAN-10               
1 36834U 10038A   26200.89878767  .00000576  00000+0  73102-4 0  9990
2 36834  97.8967 224.0425 0001565  83.6515  37.1085 14.85435709862068
COSMO-SKYMED 4          
1 37216U 10060A   26200.84882138 -.00000019  00000+0  42362-5 0  9990
2 37216  97.8898  23.9761 0001498  84.9706 275.1678 14.82149784849403
RESOURCESAT-2           
1 37387U 11015A   26200.81704299  .00000016  00000+0  27461-4 0  9996
2 37387  98.7628 268.0306 0011826 158.2915 201.8766 14.21600204790819
HAIYANG-2A              
1 37781U 11043A   26200.88397250 -.00000125  00000+0 -88263-4 0  9997
2 37781  99.3406 202.8067 0001954  21.1552 338.9677 13.73204870751145
RASAT                   
1 37791U 11044D   26200.83248008  .00000117  00000+0  28786-4 0  9993
2 37791  98.0578 291.7318 0021975  88.9618  25.6560 14.68194944797974
SRMSAT                  
1 37841U 11058D   26200.47281080  .00000323  00000+0  31520-4 0  9990
2 37841  19.9703 224.0535 0011622 198.3293 313.0958 14.11581587762388
PLEIADES 1A             
1 38012U 11076F   26200.85792462 -.00000091  00000+0 -98409-5 0  9998
2 38012  98.1963 275.5200 0001630  77.2799  31.9928 14.58547469776751
ZIYUAN 1-02C (ZY 1-02C) 
1 38038U 11079A   26200.85192516  .00000035  00000+0  25560-4 0  9996
2 38038  98.4052 267.4757 0005907 199.2598 267.9650 14.38237378763900
ARIRANG-3 (KOMPSAT-3)   
1 38338U 12025B   26200.87907080  .00000198  00000+0  48515-4 0  9998
2 38338  98.1188 157.7788 0005932  26.0899 334.0600 14.62231293756128
EXACTVIEW-1 (ADS-1B)    
1 38709U 12039C   26200.82077372  .00000044  00000+0  38619-4 0  9996
2 38709  98.9809 318.9529 0011921  79.4219 280.8301 14.24992946727351
SPOT 6                  
1 38755U 12047A   26200.85252380 -.00000023  00000+0  50022-5 0  9994
2 38755  98.2100 267.7762 0001099  92.0998 268.0327 14.58539678737813
PLEIADES 1B             
1 39019U 12068A   26200.87113465  .00000056  00000+0  21915-4 0  9996
2 39019  98.1933 275.4706 0001487  77.6822 282.4544 14.58535618725616
GOKTURK 2               
1 39030U 12073A   26200.83414200  .00000198  00000+0  35982-4 0  9998
2 39030  97.6811  36.6275 0001038 100.9221 259.2106 14.75570135729321
LANDSAT 8               
1 39084U 13008A   26200.84896603  .00000139  00000+0  40972-4 0  9998
2 39084  98.2286 270.5937 0001347  91.6940 268.4413 14.57096060702654
SARAL                   
1 39086U 13009A   26200.86084688  .00000016  00000+0  21890-4 0  9997
2 39086  98.5559  27.0151 0001973 155.8466 204.2811 14.32896463700281
GAOFEN-1                
1 39150U 13018A   26200.86261753 -.00000079  00000+0 -40840-5 0  9997
2 39150  97.9078 272.2640 0017475 156.4461 203.7553 14.76520666713069
VNREDSAT 1              
1 39160U 13021B   26200.80774100  .00000174  00000+0  41078-4 0  9998
2 39160  97.9056 252.9694 0001521  81.3580 278.7796 14.64886248705063
ARIRANG-5 (KOMPSAT-5)   
1 39227U 13042A   26200.82167201 -.00000127  00000+0 -47605-5 0  9998
2 39227  97.6204  27.0637 0004895  45.0853 315.0769 15.04494878708768
SKYSAT-A                
1 39418U 13066C   26200.39814561  .00001439  00000+0  84470-4 0  9991
2 39418  97.3798 248.7687 0020863 198.3581 161.6900 15.13127903693357
DUBAISAT-2              
1 39419U 13066D   26200.86649963  .00000895  00000+0  58260-4 0  9999
2 39419  97.4583 190.1620 0009154 284.4138  75.6075 15.10387948691329
GPM-CORE                
1 39574U 14009C   26200.83591882  .00003343  00000+0  75705-4 0  9996
2 39574  64.9697 198.7320 0010871 263.5327  96.4576 15.45075694702851
SENTINEL-1A             
1 39634U 14016A   26200.87038178 -.00000117  00000+0 -15040-4 0  9993
2 39634  98.1734 207.9246 0001452  83.4059 276.7306 14.59173141654787
KAZEOSAT 1              
1 39731U 14024A   26200.84106453 -.00000063  00000+0 -63034-5 0  9996
2 39731  98.3189 272.4734 0001190  85.4003 274.7322 14.42037835643268
ALOS-2                  
1 39766U 14029A   26200.80584179  .00000211  00000+0  35143-4 0  9992
2 39766  97.9228 297.5037 0001586  90.5623 269.5770 14.79472005656404
KAZEOSAT 2              
1 40010U 14033A   26200.83205431  .00000164  00000+0  24748-4 0  9991
2 40010  97.5393  38.7170 0007760 202.4464 157.6413 14.85502152653803
