OBJECT_NAME,OBJECT_ID,EPOCH,MEAN_MOTION,ECCENTRICITY,INCLINATION,RA_OF_ASC_NODE,ARG_OF_PERICENTER,MEAN_ANOMALY,EPHEMERIS_TYPE,CLASSIFICATION_TYPE,NORAD_CAT_ID,ELEMENT_SET_NO,REV_AT_EPOCH,BSTAR,MEAN_MOTION_DOT,MEAN_MOTION_DDOT
OCEANSAT-2,2009-051A,2026-07-19T20:50:56.326272,13.99656128,.0017635,98.2324,184.4571,140.1068,220.1398,0,U,35931,999,88390,.55281E-4,.43E-6,0
WORLDVIEW-2 (WV-2),2009-055A,2026-07-19T20:51:34.181568,14.37907681,.0005462,98.4752,273.8738,118.7338,241.4398,0,U,35946,999,88034,.2365E-4,.28E-6,0
SMOS,2009-059A,2026-07-19T12:07:32.723040,14.39737386,.000119,98.4431,27.3666,97.6519,262.4804,0,U,36036,999,87810,.47190754E-4,.104E-5,0
YAOGAN-7,2009-069A,2026-07-19T10:46:13.969920,14.78037618,.00232886,98.0026,86.1103,296.9883,62.8950,0,U,36110,999,89439,.31017574E-4,.171E-5,0
TANDEM-X,2010-030A,2026-07-19T11:12:45.173664,15.19149242,.0001887,97.4457,207.7160,96.1050,264.0399,0,U,36605,999,89154,.76149E-5,.93E-6,0
CARTOSAT-2B,2010-035A,2026-07-19T19:43:13.844064,14.78652041,.0012741,97.9930,251.1593,86.7954,273.4714,0,U,36795,999,86467,-.82071E-5,-.113E-5,0
YAOGAN-10,2010-038A,2026-07-19T21:34:15.254688,14.85435709,.0001565,97.8967,224.0425,83.6515,37.1085,0,U,36834,999,86206,.73102E-4,.576E-5,0
COSMO-SKYMED 4,2010-060A,2026-07-19T20:22:18.167232,14.82149784,.0001498,97.8898,23.9761,84.9706,275.1678,0,U,37216,999,84940,.42362E-5,-.19E-6,0
RESOURCESAT-2,2011-015A,2026-07-19T19:36:32.514336,14.21600204,.0011826,98.7628,268.0306,158.2915,201.8766,0,U,37387,999,79081,.27461E-4,.16E-6,0
HAIYANG-2A,2011-043A,2026-07-19T21:12:55.224000,13.73204870,.0001954,99.3406,202.8067,21.1552,338.9677,0,U,37781,999,75114,-.88263E-4,-.125E-5,0
RASAT,2011-044D,2026-07-19T19:58:46.278912,14.68194944,.0021975,98.0578,291.7318,88.9618,25.6560,0,U,37791,999,79797,.28786E-4,.117E-5,0
SRMSAT,2011-058D,2026-07-19T11:20:50.853120,14.11581587,.00116223,19.9703,224.0535,198.3293,313.0958,0,U,37841,999,76238,.31519595E-4,.323E-5,0
PLEIADES 1A,2011-076F,2026-07-19T20:35:24.687168,14.58547469,.000163,98.1963,275.5200,77.2799,31.9928,0,U,38012,999,77675,-.98409E-5,-.91E-6,0
ZIYUAN 1-02C (ZY 1-02C),2011-079A,2026-07-19T20:26:46.333824,14.38237378,.0005907,98.4052,267.4757,199.2598,267.9650,0,U,38038,999,76390,.2556E-4,.35E-6,0
ARIRANG-3 (KOMPSAT-3),2012-025B,2026-07-19T21:05:51.717120,14.62231293,.0005932,98.1188,157.7788,26.0899,334.0600,0,U,38338,999,75612,.48515E-4,.198E-5,0
EXACTVIEW-1 (ADS-1B),2012-039C,2026-07-19T19:41:54.849408,14.24992946,.0011921,98.9809,318.9529,79.4219,280.8301,0,U,38709,999,72735,.38619E-4,.44E-6,0
SPOT 6,2012-047A,2026-07-19T20:27:38.056320,14.58539678,.0001099,98.2100,267.7762,92.0998,268.0327,0,U,38755,999,73781,.50022E-5,-.23E-6,0
PLEIADES 1B,2012-068A,2026-07-19T20:54:26.033760,14.58535618,.0001487,98.1933,275.4706,77.6822,282.4544,0,U,39019,999,72561,.21915E-4,.56E-6,0
GOKTURK 2,2012-073A,2026-07-19T20:01:09.868800,14.75570135,.0001038,97.6811,36.6275,100.9221,259.2106,0,U,39030,999,72932,.35982E-4,.198E-5,0
LANDSAT 8,2013-008A,2026-07-19T20:22:30.664992,14.57096060,.0001347,98.2286,270.5937,91.6940,268.4413,0,U,39084,999,70265,.40972E-4,.139E-5,0
SARAL,2013-009A,2026-07-19T20:39:37.170432,14.32896463,.0001973,98.5559,27.0151,155.8466,204.2811,0,U,39086,999,70028,.2189E-4,.16E-6,0
GAOFEN-1,2013-018A,2026-07-19T20:42:10.154592,14.76520666,.0017475,97.9078,272.2640,156.4461,203.7553,0,U,39150,999,71306,-.4084E-5,-.79E-6,0
VNREDSAT 1,2013-021B,2026-07-19T19:23:08.822400,14.64886248,.0001521,97.9056,252.9694,81.3580,278.7796,0,U,39160,999,70506,.41078E-4,.174E-5,0
ARIRANG-5 (KOMPSAT-5),2013-042A,2026-07-19T19:43:12.461664,15.04494878,.0004895,97.6204,27.0637,45.0853,315.0769,0,U,39227,999,70876,-.47605E-5,-.127E-5,0
SKYSAT-A,2013-066C,2026-07-19T09:33:19.780704,15.13127903,.00208635,97.3798,248.7687,198.3581,161.6900,0,U,39418,999,69335,.84469848E-4,.1439E-4,0
DUBAISAT-2,2013-066D,2026-07-19T20:47:45.568032,15.10387948,.0009154,97.4583,190.1620,284.4138,75.6075,0,U,39419,999,69132,.5826E-4,.895E-5,0
GPM-CORE,2014-009C,2026-07-19T20:03:43.386048,15.45075694,.0010871,64.9697,198.7320,263.5327,96.4576,0,U,39574,999,70285,.75705E-4,.3343E-4,0
SENTINEL-1A,2014-016A,2026-07-19T20:53:20.985792,14.59173141,.0001452,98.1734,207.9246,83.4059,276.7306,0,U,39634,999,65478,-.1504E-4,-.117E-5,0
KAZEOSAT 1,2014-024A,2026-07-19T20:11:07.975392,14.42037835,.000119,98.3189,272.4734,85.4003,274.7322,0,U,39731,999,64326,-.63034E-5,-.63E-6,0
ALOS-2,2014-029A,2026-07-19T19:20:24.730656,14.79472005,.0001586,97.9228,297.5037,90.5623,269.5770,0,U,39766,999,65640,.35143E-4,.211E-5,0
KAZEOSAT 2,2014-033A,2026-07-19T19:58:09.492384,14.85502152,.000776,97.5393,38.7170,202.4464,157.6413,0,U,40010,999,65380,.24748E-4,.164E-5,0
